CCSDS_OMM_VERS = 2.0
CREATION_DATE  = 
ORIGINATOR     = 

OBJECT_NAME    = HULIANWANG DIGUI 13F
OBJECT_ID      = 2025-258F
CENTER_NAME    = EARTH
REF_FRAME      = TEME
TIME_SYSTEM    = UTC
MEAN_ELEMENT_THEORY = SGP/SGP4

EPOCH          = 2025-11-19T19:49:44.262336
MEAN_MOTION    = 14.26074605
ECCENTRICITY   = .00123821
INCLINATION    = 50.0021
RA_OF_ASC_NODE = 358.4189
ARG_OF_PERICENTER = 283.8909
MEAN_ANOMALY   = 76.0628

EPHEMERIS_TYPE = 0
CLASSIFICATION_TYPE = U
NORAD_CAT_ID   = 66417
ELEMENT_SET_NO = 999
REV_AT_EPOCH   = 139
BSTAR          = .23719985E-4
MEAN_MOTION_DOT = -.103E-5
MEAN_MOTION_DDOT = 0

CCSDS_OMM_VERS = 2.0
CREATION_DATE  = 
ORIGINATOR     = 

OBJECT_NAME    = HULIANWANG DIGUI 13G
OBJECT_ID      = 2025-258G
CENTER_NAME    = EARTH
REF_FRAME      = TEME
TIME_SYSTEM    = UTC
MEAN_ELEMENT_THEORY = SGP/SGP4

EPOCH          = 2025-11-21T00:25:04.636992
MEAN_MOTION    = 14.26083363
ECCENTRICITY   = .00120731
INCLINATION    = 50.0018
RA_OF_ASC_NODE = 353.3846
ARG_OF_PERICENTER = 282.0842
MEAN_ANOMALY   = 77.8719

EPHEMERIS_TYPE = 0
CLASSIFICATION_TYPE = U
NORAD_CAT_ID   = 66418
ELEMENT_SET_NO = 999
REV_AT_EPOCH   = 156
BSTAR          = -.2522383E-5
MEAN_MOTION_DOT = -.166E-5
MEAN_MOTION_DDOT = 0

CCSDS_OMM_VERS = 2.0
CREATION_DATE  = 
ORIGINATOR     = 

OBJECT_NAME    = HULIANWANG DIGUI 13H
OBJECT_ID      = 2025-258H
CENTER_NAME    = EARTH
REF_FRAME      = TEME
TIME_SYSTEM    = UTC
MEAN_ELEMENT_THEORY = SGP/SGP4

EPOCH          = 2025-11-21T00:23:22.715232
MEAN_MOTION    = 14.26239559
ECCENTRICITY   = .00114895
INCLINATION    = 50.0014
RA_OF_ASC_NODE = 353.3763
ARG_OF_PERICENTER = 284.9430
MEAN_ANOMALY   = 75.0212

EPHEMERIS_TYPE = 0
CLASSIFICATION_TYPE = U
NORAD_CAT_ID   = 66419
ELEMENT_SET_NO = 999
REV_AT_EPOCH   = 156
BSTAR          = -.353826E-5
MEAN_MOTION_DOT = -.169E-5
MEAN_MOTION_DDOT = 0

CCSDS_OMM_VERS = 2.0
CREATION_DATE  = 
ORIGINATOR     = 

OBJECT_NAME    = HULIANWANG DIGUI 13J
OBJECT_ID      = 2025-258J
CENTER_NAME    = EARTH
REF_FRAME      = TEME
TIME_SYSTEM    = UTC
MEAN_ELEMENT_THEORY = SGP/SGP4

EPOCH          = 2025-11-21T00:22:11.119008
MEAN_MOTION    = 14.26345585
ECCENTRICITY   = .00109917
INCLINATION    = 50.0039
RA_OF_ASC_NODE = 353.3787
ARG_OF_PERICENTER = 289.0184
MEAN_ANOMALY   = 70.9539

EPHEMERIS_TYPE = 0
CLASSIFICATION_TYPE = U
NORAD_CAT_ID   = 66420
ELEMENT_SET_NO = 999
REV_AT_EPOCH   = 155
BSTAR          = -.3682671E-5
MEAN_MOTION_DOT = -.169E-5
MEAN_MOTION_DDOT = 0

CCSDS_OMM_VERS = 2.0
CREATION_DATE  = 
ORIGINATOR     = 

OBJECT_NAME    = CZ-12 R/B
OBJECT_ID      = 2025-258K
CENTER_NAME    = EARTH
REF_FRAME      = TEME
TIME_SYSTEM    = UTC
MEAN_ELEMENT_THEORY = SGP/SGP4

EPOCH          = 2025-11-21T00:48:52.180992
MEAN_MOTION    = 14.42310820
ECCENTRICITY   = .00646319
INCLINATION    = 49.9958
RA_OF_ASC_NODE = 352.1358
ARG_OF_PERICENTER = 171.4236
MEAN_ANOMALY   = 188.7804

EPHEMERIS_TYPE = 0
CLASSIFICATION_TYPE = U
NORAD_CAT_ID   = 66421
ELEMENT_SET_NO = 999
REV_AT_EPOCH   = 158
BSTAR          = .24991521E-4
MEAN_MOTION_DOT = -.86E-6
MEAN_MOTION_DDOT = 0

CCSDS_OMM_VERS = 2.0
CREATION_DATE  = 
ORIGINATOR     = 

OBJECT_NAME    = STARLINK-35617
OBJECT_ID      = 2025-259A
CENTER_NAME    = EARTH
REF_FRAME      = TEME
TIME_SYSTEM    = UTC
MEAN_ELEMENT_THEORY = SGP/SGP4

EPOCH          = 2025-11-22T00:11:49.746624
MEAN_MOTION    = 15.82889704
ECCENTRICITY   = .0002328
INCLINATION    = 42.9975
RA_OF_ASC_NODE = 170.2488
ARG_OF_PERICENTER = 281.9542
MEAN_ANOMALY   = 78.1069

EPHEMERIS_TYPE = 0
CLASSIFICATION_TYPE = U
NORAD_CAT_ID   = 66422
ELEMENT_SET_NO = 999
REV_AT_EPOCH   = 293
BSTAR          = -.15389E-2
MEAN_MOTION_DOT = -.325896E-2
MEAN_MOTION_DDOT = 0

CCSDS_OMM_VERS = 2.0
CREATION_DATE  = 
ORIGINATOR     = 

OBJECT_NAME    = STARLINK-35618
OBJECT_ID      = 2025-259B
CENTER_NAME    = EARTH
REF_FRAME      = TEME
TIME_SYSTEM    = UTC
MEAN_ELEMENT_THEORY = SGP/SGP4

EPOCH          = 2025-11-22T00:11:21.766848
MEAN_MOTION    = 15.82902212
ECCENTRICITY   = .0002448
INCLINATION    = 42.9974
RA_OF_ASC_NODE = 170.2463
ARG_OF_PERICENTER = 276.3005
MEAN_ANOMALY   = 83.7588

EPHEMERIS_TYPE = 0
CLASSIFICATION_TYPE = U
NORAD_CAT_ID   = 66423
ELEMENT_SET_NO = 999
REV_AT_EPOCH   = 293
BSTAR          = -.16126E-2
MEAN_MOTION_DOT = -.341105E-2
MEAN_MOTION_DDOT = 0

CCSDS_OMM_VERS = 2.0
CREATION_DATE  = 
ORIGINATOR     = 

OBJECT_NAME    = STARLINK-35588
OBJECT_ID      = 2025-259C
CENTER_NAME    = EARTH
REF_FRAME      = TEME
TIME_SYSTEM    = UTC
MEAN_ELEMENT_THEORY = SGP/SGP4

EPOCH          = 2025-11-22T00:10:50.668896
MEAN_MOTION    = 15.82907710
ECCENTRICITY   = .0002367
INCLINATION    = 42.9976
RA_OF_ASC_NODE = 170.2439
ARG_OF_PERICENTER = 274.7838
MEAN_ANOMALY   = 85.2764

EPHEMERIS_TYPE = 0
CLASSIFICATION_TYPE = U
NORAD_CAT_ID   = 66424
ELEMENT_SET_NO = 999
REV_AT_EPOCH   = 293
BSTAR          = -.16172E-2
MEAN_MOTION_DOT = -.342125E-2
MEAN_MOTION_DDOT = 0

CCSDS_OMM_VERS = 2.0
CREATION_DATE  = 
ORIGINATOR     = 

OBJECT_NAME    = STARLINK-35555
OBJECT_ID      = 2025-259D
CENTER_NAME    = EARTH
REF_FRAME      = TEME
TIME_SYSTEM    = UTC
MEAN_ELEMENT_THEORY = SGP/SGP4

EPOCH          = 2025-11-22T00:10:14.952864
MEAN_MOTION    = 15.82733424
ECCENTRICITY   = .0001891
INCLINATION    = 42.9974
RA_OF_ASC_NODE = 170.2393
ARG_OF_PERICENTER = 293.0603
MEAN_ANOMALY   = 67.0069

EPHEMERIS_TYPE = 0
CLASSIFICATION_TYPE = U
NORAD_CAT_ID   = 66425
ELEMENT_SET_NO = 999
REV_AT_EPOCH   = 293
BSTAR          = -.27246E-2
MEAN_MOTION_DOT = -.557448E-2
MEAN_MOTION_DDOT = 0

CCSDS_OMM_VERS = 2.0
CREATION_DATE  = 
ORIGINATOR     = 

OBJECT_NAME    = STARLINK-35589
OBJECT_ID      = 2025-259E
CENTER_NAME    = EARTH
REF_FRAME      = TEME
TIME_SYSTEM    = UTC
MEAN_ELEMENT_THEORY = SGP/SGP4

EPOCH          = 2025-11-22T00:09:42.543360
MEAN_MOTION    = 15.82731215
ECCENTRICITY   = .0001995
INCLINATION    = 42.9982
RA_OF_ASC_NODE = 170.2366
ARG_OF_PERICENTER = 290.1082
MEAN_ANOMALY   = 69.9575

EPHEMERIS_TYPE = 0
CLASSIFICATION_TYPE = U
NORAD_CAT_ID   = 66426
ELEMENT_SET_NO = 999
REV_AT_EPOCH   = 293
BSTAR          = -.27255E-2
MEAN_MOTION_DOT = -.557581E-2
MEAN_MOTION_DDOT = 0

CCSDS_OMM_VERS = 2.0
CREATION_DATE  = 
ORIGINATOR     = 

OBJECT_NAME    = STARLINK-35611
OBJECT_ID      = 2025-259F
CENTER_NAME    = EARTH
REF_FRAME      = TEME
TIME_SYSTEM    = UTC
MEAN_ELEMENT_THEORY = SGP/SGP4

EPOCH          = 2025-11-22T00:09:09.416736
MEAN_MOTION    = 15.82870922
ECCENTRICITY   = .0002532
INCLINATION    = 42.9974
RA_OF_ASC_NODE = 170.2329
ARG_OF_PERICENTER = 276.4335
MEAN_ANOMALY   = 83.6249

EPHEMERIS_TYPE = 0
CLASSIFICATION_TYPE = U
NORAD_CAT_ID   = 66427
ELEMENT_SET_NO = 999
REV_AT_EPOCH   = 293
BSTAR          = -.17172E-2
MEAN_MOTION_DOT = -.361815E-2
MEAN_MOTION_DDOT = 0

CCSDS_OMM_VERS = 2.0
CREATION_DATE  = 
ORIGINATOR     = 

OBJECT_NAME    = STARLINK-35610
OBJECT_ID      = 2025-259G
CENTER_NAME    = EARTH
REF_FRAME      = TEME
TIME_SYSTEM    = UTC
MEAN_ELEMENT_THEORY = SGP/SGP4

EPOCH          = 2025-11-22T00:08:34.030752
MEAN_MOTION    = 15.82685544
ECCENTRICITY   = .0002184
INCLINATION    = 42.9975
RA_OF_ASC_NODE = 170.2287
ARG_OF_PERICENTER = 301.8161
MEAN_ANOMALY   = 58.2498

EPHEMERIS_TYPE = 0
CLASSIFICATION_TYPE = U
NORAD_CAT_ID   = 66428
ELEMENT_SET_NO = 999
REV_AT_EPOCH   = 293
BSTAR          = -.2857E-2
MEAN_MOTION_DOT = -.58165E-2
MEAN_MOTION_DDOT = 0

