HULIANWANG DIGUI 13F    
1 66417U 25258F   25323.82620674 -.00000103  00000+0  23720-4 0  9998
2 66417  50.0021 358.4189 0012382 283.8909  76.0628 14.26074605  1394
HULIANWANG DIGUI 13G    
1 66418U 25258G   25325.01741478 -.00000166  00000+0 -25224-5 0  9990
2 66418  50.0018 353.3846 0012073 282.0842  77.8719 14.26083363  1569
HULIANWANG DIGUI 13H    
1 66419U 25258H   25325.01623513 -.00000169  00000+0 -35383-5 0  9990
2 66419  50.0014 353.3763 0011489 284.9430  75.0212 14.26239559  1566
HULIANWANG DIGUI 13J    
1 66420U 25258J   25325.01540647 -.00000169  00000+0 -36827-5 0  9992
2 66420  50.0039 353.3787 0010991 289.0184  70.9539 14.26345585  1552
CZ-12 R/B               
1 66421U 25258K   25325.03393728 -.00000086  00000+0  24992-4 0  9997
2 66421  49.9958 352.1358 0064631 171.4236 188.7804 14.42310820  1581
STARLINK-35617          
1 66422U 25259A   25326.00821466 -.00325896  00000+0 -15389-2 0  9990
2 66422  42.9975 170.2488 0002328 281.9542  78.1069 15.82889704  2931
STARLINK-35618          
1 66423U 25259B   25326.00789082 -.00341105  00000+0 -16126-2 0  9999
2 66423  42.9974 170.2463 0002448 276.3005  83.7588 15.82902212  2937
STARLINK-35588          
1 66424U 25259C   25326.00753089 -.00342125  00000+0 -16172-2 0  9992
2 66424  42.9976 170.2439 0002367 274.7838  85.2764 15.82907710  2930
STARLINK-35555          
1 66425U 25259D   25326.00711751 -.00557448  00000+0 -27246-2 0  9993
2 66425  42.9974 170.2393 0001891 293.0603  67.0069 15.82733424  2938
STARLINK-35589          
1 66426U 25259E   25326.00674240 -.00557581  00000+0 -27255-2 0  9993
2 66426  42.9982 170.2366 0001995 290.1082  69.9575 15.82731215  2931
STARLINK-35611          
1 66427U 25259F   25326.00635899 -.00361815  00000+0 -17172-2 0  9991
2 66427  42.9974 170.2329 0002532 276.4335  83.6249 15.82870922  2938
STARLINK-35610          
1 66428U 25259G   25326.00594943 -.00581650  00000+0 -28570-2 0  9991
2 66428  42.9975 170.2287 0002184 301.8161  58.2498 15.82685544  2934
